{{DISPLAYTITLE:2010 TD<sub>54</sub>}}
{{Infobox planet | discovery=yes | physical_characteristics = yes | bgcolour=#FFFFC0 |
name=2010 TD<sub>54</sub>
| discoverer=[[卡特林那巡天系统|卡特林那巡天系统]]
| discovered=2010年10月9日
| alt_names= 无
| mp_category=[[阿波罗型小行星|阿波罗型小行星]] （[[近地天体|NEO]]）
| epoch=2011-8-27.0
| semimajor=1.972647748076696AU
| perihelion=0.702726472276936AU
| aphelion=3.242569023876455[[天文单位|AU]]
| eccentricity=0.6437648470376505
| period=1011.981884900836天<br>2.77年
| inclination=4.308622677402725°
| asc_node=18.71473214677557°
| arg_peri=75.93908571210298°
| mean_anomaly=97.09264723675531°
| avg_speed=
| dimensions=5-10米
| mass=
| density=
| surface_grav=
| escape_velocity=
| rotation=
| spectral_type=
| abs_magnitude=28.799
| albedo=
| single_temperature=
}}
{{mp|2010 TD|54}}是由[[亚利桑那大学|亚利桑那大学]]的[[卡特林那巡天系统|卡特林那巡天系统]]在2010年10月9日发现的小型[[阿波罗型小行星|阿波罗型小行星]]<ref name="NASA">{{cite news|url=http://www.jpl.nasa.gov/news/news.cfm?release=2010-332|title=Small Asteroid to Pass Within Earth-Moon System Tuesday|publisher=NASA|accessdate=11 October 2010|archive-date=2012-06-14|archive-url=https://web.archive.org/web/20120614015549/http://www.jpl.nasa.gov/news/news.cfm?release=2010-332|dead-url=no}}</ref>。它的直径约为5-10米，[[绝对星等|绝对星等]]为28.799<ref>{{Cite web |url=http://ssd.jpl.nasa.gov/sbdb.cgi?sstr=2010%20TD54&orb=1 |title=JPL Small-Body Database Browser |accessdate=2011-10-13 |archive-date=2020-11-29 |archive-url=https://web.archive.org/web/20201129030205/https://ssd.jpl.nasa.gov/sbdb.cgi?sstr=2010%20TD54&orb=1 |dead-url=no }}</ref>。

2010年10月12日[[协调世界时|协调世界时]]10:51，它在距离地球表面45000千米的地方（月球轨道以内）掠过地球<ref name="NASA"/>，视星等最亮时约为14等。这使得它在当时成为掠过地球的第五近小行星（至2011年10月是第七近）。

[[File:Asteroid_2010TD54_orbit.jpg|thumb]]

==相关条目==
* [[2009_VA|2009 VA]], [[2010_RF12|2010 RF<sub>12</sub>]], [[2010_RX30|2010 RX<sub>30</sub>]]：在2009年和2010年相似大小的掠地小行星
* [[值得关注的小行星列表#曾经非常接近地球的小行星|值得关注的小行星列表#曾经非常接近地球的小行星]] 其他接近地球的小行星

==参考资料==
{{Reflist}}

==外部链接==
* [http://scully.cfa.harvard.edu/~cgi/ReturnPrepEph?d=n&o=K10T54D Orbital elements and ephemeris]{{dead link|date=十一月 2017 |bot=InternetArchiveBot }}

[[Category:阿波罗型小行星|Category:阿波罗型小行星]]
[[Category:2010年发现的小行星|Category:2010年发现的小行星]]
[[Category:近地小行星|Category:近地小行星]]